QIANFAN-65              
1 62795U 25016L   25217.19115618  .00000129  00000+0  18060-3 0  9991
2 62795  88.9828 116.4464 0014713   6.1622 353.9708 13.50961085 29759
QIANFAN-66              
1 62796U 25016M   25217.51608376  .00000122  00000+0  17051-3 0  9998
2 62796  88.9847 116.3579 0015633   0.4695 359.6468 13.50956188 29840
QIANFAN-67              
1 62797U 25016N   25217.22405400  .00000130  00000+0  18267-3 0  9999
2 62797  88.9838 116.4260 0015887   7.8208 352.3188 13.50964898 29779
QIANFAN-68              
1 62798U 25016P   25216.93184922  .00000117  00000+0  16259-3 0  9994
2 62798  88.9842 116.4995 0016479   6.7123 353.4246 13.50962185 29710
QIANFAN-69              
1 62799U 25016Q   25217.15810936  .00000129  00000+0  18169-3 0  9996
2 62799  88.9820 116.3707 0016651   6.9602 353.1778 13.50957938 29787
QIANFAN-70              
1 62800U 25016R   25216.95244429  .00000101  00000+0  13740-3 0  9994
2 62800  88.9842 116.5026 0015916 358.6002   1.5101 13.50961587 29716
QIANFAN-71              
1 62801U 25016S   25216.87434719  .00000107  00000+0  14782-3 0  9992
2 62801  88.9836 116.4982 0016721  11.1076 349.0440 13.50961420 29708
QIANFAN-72              
1 62802U 25016T   25216.87008494  .00000115  00000+0  15909-3 0  9991
2 62802  88.9826 116.5199 0020324  16.0491 344.1300 13.50956814 29698
